IRIDIUM 126             
1 42809U 17039G   25255.88855102  .00000346  00000+0  11664-3 0  9992
2 42809  86.3935 109.5900 0002042  92.1342 268.0087 14.34217943430200
IRIDIUM 124             
1 42810U 17039H   25255.65971359  .00000346  00000+0  96788-4 0  9993
2 42810  86.4474  46.3656 0002261  89.5225 270.6235 14.43276618435089
IRIDIUM 128             
1 42811U 17039J   25255.94906007  .00000018  00000+0 -77026-6 0  9997
2 42811  86.4005 141.0721 0002453  79.3437 280.8035 14.34217851430249
IRIDIUM 121             
1 42812U 17039K   25255.55873492  .00000182  00000+0  57970-4 0  9991
2 42812  86.3935 109.7537 0002191  83.8631 276.2814 14.34219159430036
IRIDIUM 133             
1 42955U 17061A   25255.42262306  .00000181  00000+0  57660-4 0  9991
2 42955  86.4006 141.4025 0002205  84.2451 275.8997 14.34217284414968
IRIDIUM 100             
1 42956U 17061B   25255.62558727  .00000071  00000+0  18186-4 0  9997
2 42956  86.4005 141.2431 0002247  87.6286 272.5167 14.34217684414996
IRIDIUM 122             
1 42957U 17061C   25255.66364123  .00000200  00000+0  64520-4 0  9994
2 42957  86.4004 141.2266 0002160  85.7242 274.4201 14.34219411415000
IRIDIUM 129             
1 42958U 17061D   25255.96808607  .00000171  00000+0  54173-4 0  9998
2 42958  86.4007 141.1636 0001717  86.8747 273.2645 14.34217559415069
